{
 "type": "FeatureCollection",
 "name": "OpenStreetMap extract around UPES Bidholi",
 "license": "Data (c) OpenStreetMap contributors, ODbL 1.0 - https://www.openstreetmap.org/copyright",
 "source": "Overpass API mirror overpass.kumi.systems, query bbox 30.4110,77.9610,30.4225,77.9745 plus way 321638232; retrieved 2026-09-25",
 "osm_base_timestamp": "2026-07-15T15:22:01Z",
 "features": [
  {
   "type": "Feature",
   "id": "way/313428700",
   "properties": {
    "highway": "tertiary"
   },
   "geometry": {
    "type": "LineString",
    "coordinates": [
     [
      77.9688157,
      30.3964262
     ],
     [
      77.968945,
      30.3969462
     ],
     [
      77.9689468,
      30.3969578
     ],
     [
      77.9689815,
      30.3971829
     ],
     [
      77.9689951,
      30.3973545
     ],
     [
      77.9690541,
      30.397774
     ],
     [
      77.9690759,
      30.3978771
     ],
     [
      77.9691565,
      30.3982589
     ],
     [
      77.9692095,
      30.3986146
     ],
     [
      77.9692195,
      30.398682
     ],
     [
      77.9692982,
      30.3991299
     ],
     [
      77.969359,
      30.3994802
     ],
     [
      77.9693687,
      30.3995742
     ],
     [
      77.9693728,
      30.3996556
     ],
     [
      77.9693594,
      30.3997059
     ],
     [
      77.9693441,
      30.3997383
     ],
     [
      77.9693234,
      30.399782
     ],
     [
      77.969207,
      30.399965
     ],
     [
      77.9690677,
      30.4001496
     ],
     [
      77.9689301,
      30.4003105
     ],
     [
      77.9688607,
      30.4003922
     ],
     [
      77.9688234,
      30.4004471
     ],
     [
      77.9687955,
      30.4005078
     ],
     [
      77.9687783,
      30.4005612
     ],
     [
      77.9687719,
      30.4006284
     ],
     [
      77.9687726,
      30.4007734
     ],
     [
      77.9688015,
      30.4012503
     ],
     [
      77.9688507,
      30.4017062
     ],
     [
      77.9689672,
      30.4023274
     ],
     [
      77.9689781,
      30.4023825
     ],
     [
      77.9689869,
      30.4024107
     ],
     [
      77.9691299,
      30.4027784
     ],
     [
      77.9691983,
      30.4030418
     ],
     [
      77.9693308,
      30.4035227
     ],
     [
      77.9694718,
      30.4039522
     ],
     [
      77.9695718,
      30.4042157
     ],
     [
      77.9696489,
      30.404419
     ],
     [
      77.9696752,
      30.4045068
     ],
     [
      77.9697776,
      30.404848
     ],
     [
      77.9698086,
      30.4049682
     ],
     [
      77.9699144,
      30.4053787
     ],
     [
      77.9699872,
      30.4058311
     ],
     [
      77.9700546,
      30.4061447
     ],
     [
      77.9701466,
      30.4065062
     ],
     [
      77.9701625,
      30.4065898
     ],
     [
      77.9701753,
      30.4066894
     ],
     [
      77.9701774,
      30.4068033
     ],
     [
      77.9701595,
      30.4069703
     ],
     [
      77.9701123,
      30.4073009
     ],
     [
      77.9700337,
      30.4075815
     ],
     [
      77.9700318,
      30.4077424
     ],
     [
      77.9700413,
      30.4078461
     ],
     [
      77.9700549,
      30.4079481
     ],
     [
      77.9700807,
      30.4081476
     ],
     [
      77.9700791,
      30.4083654
     ],
     [
      77.9700755,
      30.4084428
     ],
     [
      77.9700603,
      30.4086011
     ],
     [
      77.970035,
      30.4087609
     ],
     [
      77.9699962,
      30.4089071
     ],
     [
      77.9699727,
      30.408983
     ],
     [
      77.9699424,
      30.4090415
     ],
     [
      77.9699088,
      30.40908
     ],
     [
      77.9698668,
      30.409117
     ],
     [
      77.9698204,
      30.4091471
     ],
     [
      77.9697391,
      30.4091883
     ],
     [
      77.9694774,
      30.4092887
     ],
     [
      77.9694362,
      30.4093114
     ],
     [
      77.9693844,
      30.4093417
     ],
     [
      77.9693327,
      30.4093821
     ],
     [
      77.9692569,
      30.4094641
     ],
     [
      77.9690794,
      30.4096884
     ],
     [
      77.9690629,
      30.4097127
     ],
     [
      77.9689231,
      30.4099187
     ],
     [
      77.968635,
      30.4103791
     ],
     [
      77.9684928,
      30.4105977
     ],
     [
      77.9684861,
      30.4106114
     ],
     [
      77.9683871,
      30.4108129
     ],
     [
      77.9680381,
      30.4114917
     ],
     [
      77.967498,
      30.4124096
     ],
     [
      77.9670936,
      30.4131555
     ],
     [
      77.9670153,
      30.413308
     ],
     [
      77.9668763,
      30.4135789
     ],
     [
      77.9666617,
      30.4139397
     ],
     [
      77.9665411,
      30.4141425
     ],
     [
      77.9661994,
      30.4147654
     ],
     [
      77.9660219,
      30.4151614
     ],
     [
      77.9659955,
      30.4152655
     ],
     [
      77.965969,
      30.4153972
     ],
     [
      77.9659526,
      30.4155221
     ],
     [
      77.9659402,
      30.4157123
     ],
     [
      77.965647,
      30.4166928
     ],
     [
      77.9653698,
      30.4173588
     ],
     [
      77.9653679,
      30.4173838
     ],
     [
      77.9653713,
      30.4174081
     ],
     [
      77.965577,
      30.4180067
     ],
     [
      77.9655789,
      30.4180295
     ],
     [
      77.9655738,
      30.418052
     ],
     [
      77.9655618,
      30.4180718
     ],
     [
      77.9655451,
      30.4180887
     ],
     [
      77.9655172,
      30.418101
     ],
     [
      77.9654867,
      30.4181119
     ],
     [
      77.9654553,
      30.4181178
     ],
     [
      77.9654312,
      30.4181207
     ],
     [
      77.9654025,
      30.4181175
     ],
     [
      77.9653698,
      30.4181077
     ],
     [
      77.9653485,
      30.4180932
     ],
     [
      77.9653324,
      30.4180728
     ],
     [
      77.9651199,
      30.4174613
     ],
     [
      77.9650865,
      30.4174161
     ],
     [
      77.9647605,
      30.4170602
     ],
     [
      77.9644344,
      30.4167766
     ],
     [
      77.9641799,
      30.4165755
     ],
     [
      77.963865,
      30.4163353
     ],
     [
      77.96307,
      30.4155246
     ],
     [
      77.9624215,
      30.4148394
     ],
     [
      77.9614142,
      30.4137694
     ],
     [
      77.9614082,
      30.4137616
     ],
     [
      77.9614004,
      30.4137575
     ],
     [
      77.9613914,
      30.4137551
     ],
     [
      77.9613764,
      30.4137537
     ],
     [
      77.9610312,
      30.4137725
     ],
     [
      77.9609455,
      30.4137649
     ],
     [
      77.9608597,
      30.4137439
     ],
     [
      77.9607936,
      30.4137158
     ],
     [
      77.960724,
      30.4136817
     ],
     [
      77.9606267,
      30.413622
     ],
     [
      77.9605018,
      30.4135285
     ],
     [
      77.9604231,
      30.41346
     ],
     [
      77.9603804,
      30.4134362
     ],
     [
      77.9591789,
      30.4131334
     ],
     [
      77.9591269,
      30.4131065
     ],
     [
      77.9590628,
      30.413064
     ],
     [
      77.9586012,
      30.4125701
     ],
     [
      77.9580756,
      30.411846
     ],
     [
      77.9580437,
      30.4117795
     ],
     [
      77.9577834,
      30.4111527
     ],
     [
      77.9577785,
      30.4111472
     ],
     [
      77.957774,
      30.4111451
     ],
     [
      77.9577678,
      30.411144
     ],
     [
      77.9577607,
      30.4111454
     ],
     [
      77.9577537,
      30.4111485
     ],
     [
      77.9574559,
      30.411417
     ],
     [
      77.9574502,
      30.4114356
     ],
     [
      77.9574553,
      30.4114558
     ],
     [
      77.9577614,
      30.4119608
     ],
     [
      77.9577817,
      30.4120229
     ],
     [
      77.9581088,
      30.4128245
     ],
     [
      77.95847,
      30.4137437
     ],
     [
      77.9584724,
      30.4137633
     ],
     [
      77.9584658,
      30.4137881
     ],
     [
      77.9584562,
      30.413802
     ],
     [
      77.9583966,
      30.4138888
     ],
     [
      77.9583005,
      30.4139846
     ],
     [
      77.9580926,
      30.4141777
     ],
     [
      77.9580088,
      30.4142388
     ],
     [
      77.9575957,
      30.4144897
     ],
     [
      77.9567206,
      30.4149005
     ],
     [
      77.956673,
      30.4149202
     ],
     [
      77.9566336,
      30.4149342
     ],
     [
      77.9565918,
      30.4149423
     ],
     [
      77.9565058,
      30.4149519
     ],
     [
      77.9564371,
      30.4149637
     ],
     [
      77.9563826,
      30.4149901
     ],
     [
      77.9563071,
      30.4150472
     ],
     [
      77.9562558,
      30.4150981
     ],
     [
      77.9561931,
      30.4152005
     ],
     [
      77.9561751,
      30.4152159
     ],
     [
      77.95615,
      30.415227
     ],
     [
      77.9559974,
      30.4154364
     ],
     [
      77.9560197,
      30.4156068
     ],
     [
      77.9560006,
      30.4156439
     ],
     [
      77.9559496,
      30.4156549
     ],
     [
      77.9558332,
      30.4156041
     ],
     [
      77.9556818,
      30.4154721
     ],
     [
      77.9555208,
      30.4153072
     ],
     [
      77.955481,
      30.4152975
     ],
     [
      77.9554505,
      30.4153134
     ],
     [
      77.9556427,
      30.4155858
     ],
     [
      77.9557629,
      30.4157253
     ],
     [
      77.9558971,
      30.4158529
     ],
     [
      77.9559718,
      30.4159198
     ],
     [
      77.9561594,
      30.416018
     ],
     [
      77.9562894,
      30.4160667
     ],
     [
      77.9563914,
      30.4160993
     ],
     [
      77.9564908,
      30.4161238
     ],
     [
      77.9565643,
      30.4161471
     ],
     [
      77.9566308,
      30.4161744
     ],
     [
      77.956695,
      30.4162174
     ],
     [
      77.9567477,
      30.4162663
     ],
     [
      77.9567631,
      30.4162839
     ],
     [
      77.9567706,
      30.4163076
     ],
     [
      77.9567767,
      30.4163437
     ],
     [
      77.9568053,
      30.4164415
     ],
     [
      77.9568248,
      30.4164822
     ],
     [
      77.9568523,
      30.4165206
     ],
     [
      77.9568802,
      30.4165526
     ],
     [
      77.9569362,
      30.4165915
     ],
     [
      77.9570095,
      30.4166342
     ],
     [
      77.9571711,
      30.4167182
     ],
     [
      77.9572053,
      30.4167504
     ],
     [
      77.9574578,
      30.4170723
     ],
     [
      77.9576557,
      30.4173527
     ],
     [
      77.9577298,
      30.4175064
     ],
     [
      77.9577517,
      30.4175398
     ],
     [
      77.9577937,
      30.4175831
     ],
     [
      77.957849,
      30.4176175
     ],
     [
      77.9579287,
      30.417657
     ],
     [
      77.958022,
      30.4177102
     ],
     [
      77.9580957,
      30.417768
     ],
     [
      77.9584497,
      30.4182428
     ],
     [
      77.9585095,
      30.4182986
     ],
     [
      77.9585518,
      30.4183276
     ],
     [
      77.958617,
      30.4183543
     ],
     [
      77.9586824,
      30.4183748
     ],
     [
      77.9587676,
      30.4183951
     ],
     [
      77.9589881,
      30.4184258
     ],
     [
      77.9592289,
      30.4184529
     ],
     [
      77.9593212,
      30.4184533
     ],
     [
      77.9596374,
      30.4184546
     ],
     [
      77.9597145,
      30.418467
     ],
     [
      77.959769,
      30.4184841
     ],
     [
      77.9598173,
      30.4185119
     ],
     [
      77.9600636,
      30.4187281
     ],
     [
      77.9601063,
      30.4187724
     ],
     [
      77.9602426,
      30.4189138
     ],
     [
      77.9603556,
      30.4190669
     ],
     [
      77.9604946,
      30.4192551
     ],
     [
      77.9605598,
      30.4193434
     ],
     [
      77.9608199,
      30.4198574
     ],
     [
      77.9608326,
      30.4198826
     ],
     [
      77.9614842,
      30.4209708
     ],
     [
      77.9615755,
      30.4211082
     ],
     [
      77.9616096,
      30.4211483
     ],
     [
      77.9616806,
      30.4212097
     ],
     [
      77.9617357,
      30.4212662
     ],
     [
      77.9617838,
      30.4213228
     ],
     [
      77.9618871,
      30.4214604
     ],
     [
      77.9619962,
      30.4216181
     ],
     [
      77.9620032,
      30.4216308
     ],
     [
      77.9620062,
      30.421647
     ],
     [
      77.9619912,
      30.4219313
     ],
     [
      77.9619655,
      30.4220811
     ],
     [
      77.9619165,
      30.4222389
     ],
     [
      77.9618919,
      30.4224373
     ],
     [
      77.9618881,
      30.4224997
     ],
     [
      77.9620622,
      30.4233383
     ],
     [
      77.9620752,
      30.4233633
     ],
     [
      77.9623917,
      30.4237397
     ],
     [
      77.962401,
      30.4237447
     ],
     [
      77.9624138,
      30.4237476
     ],
     [
      77.9624266,
      30.4237464
     ],
     [
      77.9624378,
      30.4237439
     ],
     [
      77.9624493,
      30.4237372
     ],
     [
      77.9624541,
      30.4237296
     ],
     [
      77.962457,
      30.4237217
     ],
     [
      77.9624573,
      30.4237138
     ],
     [
      77.9621494,
      30.4230228
     ],
     [
      77.962133,
      30.4229499
     ],
     [
      77.962106,
      30.422149
     ],
     [
      77.9621116,
      30.4221376
     ],
     [
      77.9621249,
      30.4221315
     ],
     [
      77.9630537,
      30.4218467
     ],
     [
      77.9630865,
      30.4218513
     ],
     [
      77.9631179,
      30.4218663
     ],
     [
      77.9636514,
      30.4227009
     ],
     [
      77.9642308,
      30.4234734
     ],
     [
      77.9648316,
      30.4241386
     ],
     [
      77.9648833,
      30.4241882
     ],
     [
      77.965502,
      30.4245818
     ],
     [
      77.965521,
      30.4246043
     ],
     [
      77.9655238,
      30.4246361
     ],
     [
      77.9655216,
      30.4252862
     ],
     [
      77.9655013,
      30.425352
     ],
     [
      77.9645928,
      30.4272687
     ],
     [
      77.9645847,
      30.4273129
     ],
     [
      77.9646,
      30.427353
     ],
     [
      77.9650462,
      30.4278078
     ],
     [
      77.9650964,
      30.4278186
     ],
     [
      77.9661834,
      30.427664
     ],
     [
      77.966339,
      30.4276589
     ],
     [
      77.967854,
      30.4278687
     ],
     [
      77.9680084,
      30.4279157
     ],
     [
      77.9681898,
      30.4280041
     ],
     [
      77.9683619,
      30.4281468
     ],
     [
      77.9685016,
      30.4283318
     ],
     [
      77.9685844,
      30.4285379
     ],
     [
      77.9686671,
      30.4288024
     ],
     [
      77.9687172,
      30.4291159
     ],
     [
      77.9687101,
      30.4291997
     ],
     [
      77.9685223,
      30.4300483
     ],
     [
      77.9685344,
      30.430083
     ],
     [
      77.9685616,
      30.4301053
     ],
     [
      77.9687958,
      30.43016
     ],
     [
      77.9688162,
      30.4301847
     ],
     [
      77.9688203,
      30.4302082
     ],
     [
      77.9687456,
      30.4306404
     ],
     [
      77.9687341,
      30.4306945
     ],
     [
      77.968732,
      30.4307463
     ],
     [
      77.9687704,
      30.4309288
     ],
     [
      77.9687701,
      30.4309872
     ],
     [
      77.9687508,
      30.4310581
     ],
     [
      77.968727,
      30.4311016
     ],
     [
      77.968688,
      30.4311539
     ],
     [
      77.9686784,
      30.4312121
     ],
     [
      77.9686967,
      30.4312641
     ],
     [
      77.9687421,
      30.4313122
     ],
     [
      77.968844,
      30.4314153
     ],
     [
      77.9688642,
      30.4314639
     ],
     [
      77.9688528,
      30.4315219
     ],
     [
      77.9688252,
      30.4315638
     ],
     [
      77.9687883,
      30.4315964
     ],
     [
      77.9683553,
      30.4317916
     ],
     [
      77.9682912,
      30.4318436
     ],
     [
      77.9682687,
      30.4319001
     ],
     [
      77.9682638,
      30.4319566
     ],
     [
      77.9682868,
      30.4320138
     ],
     [
      77.9685537,
      30.4322794
     ],
     [
      77.9685896,
      30.4323108
     ],
     [
      77.9686155,
      30.4323524
     ],
     [
      77.9686129,
      30.4324949
     ],
     [
      77.9685998,
      30.4326924
     ],
     [
      77.968534,
      30.4330439
     ],
     [
      77.9684976,
      30.433333
     ],
     [
      77.9684933,
      30.4335702
     ],
     [
      77.9684682,
      30.4338051
     ],
     [
      77.9684507,
      30.4338513
     ],
     [
      77.9683292,
      30.4342696
     ],
     [
      77.9682703,
      30.4345979
     ],
     [
      77.9682749,
      30.4346422
     ],
     [
      77.9683015,
      30.434688
     ],
     [
      77.9683384,
      30.4347095
     ],
     [
      77.9683788,
      30.4347192
     ],
     [
      77.9684313,
      30.4347199
     ],
     [
      77.9684798,
      30.4347019
     ],
     [
      77.9686687,
      30.4345989
     ],
     [
      77.9687152,
      30.434579
     ],
     [
      77.9687759,
      30.4345735
     ],
     [
      77.9688225,
      30.4345857
     ],
     [
      77.9688764,
      30.4346168
     ],
     [
      77.968909,
      30.4346621
     ],
     [
      77.968924,
      30.4346982
     ],
     [
      77.9689786,
      30.4349189
     ],
     [
      77.9689857,
      30.4349509
     ],
     [
      77.968991,
      30.4349743
     ],
     [
      77.9690102,
      30.4350043
     ],
     [
      77.9690452,
      30.4350248
     ],
     [
      77.9690915,
      30.4350386
     ],
     [
      77.9691524,
      30.4350413
     ],
     [
      77.9694634,
      30.4349953
     ],
     [
      77.9697766,
      30.4349318
     ],
     [
      77.969818,
      30.4349292
     ],
     [
      77.9698649,
      30.4349342
     ],
     [
      77.9705364,
      30.435083
     ],
     [
      77.9706341,
      30.4351175
     ],
     [
      77.9707533,
      30.4351914
     ],
     [
      77.9707802,
      30.4352063
     ],
     [
      77.9708259,
      30.4352316
     ],
     [
      77.9708662,
      30.4352445
     ],
     [
      77.9709064,
      30.4352483
     ],
     [
      77.9709624,
      30.4352384
     ],
     [
      77.9710105,
      30.4352155
     ],
     [
      77.971216,
      30.4350519
     ],
     [
      77.9712726,
      30.4350199
     ],
     [
      77.9714855,
      30.4349593
     ],
     [
      77.9716414,
      30.4349075
     ],
     [
      77.9717407,
      30.4348546
     ],
     [
      77.9718091,
      30.4347908
     ],
     [
      77.9719066,
      30.434616
     ],
     [
      77.9719502,
      30.4345632
     ],
     [
      77.9719943,
      30.4345277
     ],
     [
      77.9720409,
      30.4345093
     ],
     [
      77.9721088,
      30.4345067
     ],
     [
      77.9721579,
      30.4345166
     ],
     [
      77.9722258,
      30.4345389
     ],
     [
      77.9722979,
      30.4345763
     ],
     [
      77.9723597,
      30.4346223
     ],
     [
      77.9726274,
      30.4348818
     ],
     [
      77.9728921,
      30.435164
     ],
     [
      77.9729289,
      30.435225
     ],
     [
      77.9729674,
      30.435314
     ],
     [
      77.9729844,
      30.4354183
     ],
     [
      77.9729853,
      30.4355041
     ],
     [
      77.9729065,
      30.4358833
     ],
     [
      77.97285,
      30.436249
     ],
     [
      77.9727888,
      30.4365945
     ],
     [
      77.9726736,
      30.436894
     ],
     [
      77.9725841,
      30.4372117
     ],
     [
      77.9727578,
      30.4374961
     ],
     [
      77.9729316,
      30.4377202
     ],
     [
      77.9733297,
      30.4381302
     ],
     [
      77.9734392,
      30.4382117
     ],
     [
      77.9734862,
      30.4382337
     ],
     [
      77.9735597,
      30.4382512
     ],
     [
      77.9736211,
      30.4382507
     ],
     [
      77.9736732,
      30.4382365
     ],
     [
      77.9737142,
      30.4382051
     ],
     [
      77.973729,
      30.4381694
     ],
     [
      77.9737323,
      30.4381292
     ],
     [
      77.973757,
      30.4379018
     ],
     [
      77.9737679,
      30.4378597
     ],
     [
      77.9737839,
      30.4378198
     ],
     [
      77.973861,
      30.4376585
     ],
     [
      77.9739054,
      30.4375683
     ],
     [
      77.9739379,
      30.4374848
     ],
     [
      77.9739921,
      30.4372456
     ],
     [
      77.9740334,
      30.4370719
     ],
     [
      77.9740723,
      30.4369156
     ],
     [
      77.9741204,
      30.4368425
     ],
     [
      77.9741725,
      30.4367951
     ],
     [
      77.9742917,
      30.4367258
     ],
     [
      77.974401,
      30.4366783
     ],
     [
      77.9745296,
      30.4366312
     ],
     [
      77.9747437,
      30.4365797
     ],
     [
      77.9749508,
      30.4365365
     ],
     [
      77.9750482,
      30.4365263
     ],
     [
      77.9754742,
      30.4364816
     ],
     [
      77.9755358,
      30.4364813
     ],
     [
      77.9755911,
      30.436488
     ],
     [
      77.9756567,
      30.4365058
     ],
     [
      77.975716,
      30.4365267
     ],
     [
      77.975767,
      30.4365477
     ],
     [
      77.9758079,
      30.4365537
     ],
     [
      77.9758404,
      30.4365522
     ],
     [
      77.9758741,
      30.4365378
     ],
     [
      77.9758958,
      30.4365218
     ],
     [
      77.97591,
      30.436504
     ],
     [
      77.9759166,
      30.4364821
     ],
     [
      77.9759629,
      30.4362803
     ],
     [
      77.9759791,
      30.4362556
     ],
     [
      77.9759973,
      30.4362416
     ],
     [
      77.9760187,
      30.4362312
     ],
     [
      77.9760482,
      30.436226
     ],
     [
      77.9763028,
      30.4362108
     ],
     [
      77.9763324,
      30.4361998
     ],
     [
      77.9763452,
      30.4361885
     ],
     [
      77.9763482,
      30.4361685
     ],
     [
      77.9763425,
      30.4361446
     ],
     [
      77.9763086,
      30.4360339
     ],
     [
      77.976303,
      30.4360042
     ],
     [
      77.9763085,
      30.4359622
     ],
     [
      77.9764231,
      30.4357429
     ],
     [
      77.9765612,
      30.4355484
     ],
     [
      77.9765959,
      30.4355192
     ],
     [
      77.9766306,
      30.4355056
     ],
     [
      77.9766694,
      30.4354968
     ],
     [
      77.9767123,
      30.4354999
     ],
     [
      77.9767543,
      30.4355051
     ],
     [
      77.9767823,
      30.4355174
     ],
     [
      77.9768208,
      30.4355447
     ],
     [
      77.9768565,
      30.4355768
     ],
     [
      77.9770399,
      30.4357865
     ],
     [
      77.9770941,
      30.4358255
     ],
     [
      77.9771351,
      30.4358401
     ],
     [
      77.9771861,
      30.4358429
     ],
     [
      77.9772306,
      30.4358335
     ],
     [
      77.9772545,
      30.4358143
     ],
     [
      77.9772699,
      30.4357834
     ],
     [
      77.9773089,
      30.4357173
     ],
     [
      77.9773302,
      30.4356908
     ],
     [
      77.977374,
      30.4356679
     ],
     [
      77.9774303,
      30.4356614
     ],
     [
      77.9775078,
      30.4356669
     ],
     [
      77.9776316,
      30.4356979
     ],
     [
      77.9784334,
      30.4360748
     ],
     [
      77.9784746,
      30.4360828
     ],
     [
      77.9785119,
      30.4360806
     ],
     [
      77.978555,
      30.4360681
     ],
     [
      77.9785858,
      30.436051
     ],
     [
      77.9786049,
      30.4360289
     ],
     [
      77.9786248,
      30.4360006
     ],
     [
      77.9786331,
      30.4359724
     ],
     [
      77.9786408,
      30.4359365
     ],
     [
      77.9786407,
      30.4359056
     ],
     [
      77.9785517,
      30.4355305
     ],
     [
      77.978538,
      30.4354842
     ],
     [
      77.9785372,
      30.435459
     ],
     [
      77.9785464,
      30.4354351
     ],
     [
      77.9785668,
      30.4354099
     ],
     [
      77.9786012,
      30.435369
     ],
     [
      77.9786162,
      30.4353349
     ],
     [
      77.9786245,
      30.4352901
     ],
     [
      77.978553,
      30.4349767
     ],
     [
      77.9785535,
      30.4349567
     ],
     [
      77.9785599,
      30.4349379
     ],
     [
      77.9785683,
      30.4349204
     ],
     [
      77.9785797,
      30.434908
     ],
     [
      77.9786022,
      30.4348904
     ],
     [
      77.9786199,
      30.4348824
     ],
     [
      77.9786435,
      30.4348738
     ],
     [
      77.9790593,
      30.4348116
     ],
     [
      77.9791392,
      30.4348103
     ],
     [
      77.9792141,
      30.4348219
     ],
     [
      77.9793374,
      30.4348591
     ],
     [
      77.9794166,
      30.4348789
     ],
     [
      77.9795996,
      30.4349036
     ],
     [
      77.9797697,
      30.4349183
     ],
     [
      77.9799067,
      30.4349468
     ],
     [
      77.9799652,
      30.4349557
     ],
     [
      77.9804943,
      30.4349668
     ],
     [
      77.9808384,
      30.4349776
     ],
     [
      77.9810041,
      30.43499
     ],
     [
      77.9811413,
      30.4350003
     ],
     [
      77.9812886,
      30.4350226
     ],
     [
      77.9814123,
      30.4350483
     ],
     [
      77.9815161,
      30.4350784
     ],
     [
      77.9815755,
      30.435108
     ],
     [
      77.9817794,
      30.4352442
     ],
     [
      77.9818728,
      30.4352896
     ],
     [
      77.9819602,
      30.4353273
     ],
     [
      77.9820085,
      30.4353436
     ],
     [
      77.9820483,
      30.4353526
     ],
     [
      77.9820836,
      30.4353543
     ],
     [
      77.9821306,
      30.4353412
     ],
     [
      77.9821544,
      30.4353276
     ],
     [
      77.9822589,
      30.4351819
     ],
     [
      77.982271,
      30.4351572
     ],
     [
      77.9823584,
      30.434945
     ],
     [
      77.9824578,
      30.4346398
     ],
     [
      77.9825824,
      30.4342983
     ],
     [
      77.9826356,
      30.4342048
     ],
     [
      77.9826948,
      30.4341217
     ],
     [
      77.9827539,
      30.4340449
     ],
     [
      77.9828131,
      30.4339785
     ],
     [
      77.9828769,
      30.4339299
     ],
     [
      77.9829413,
      30.4338983
     ],
     [
      77.9830057,
      30.43389
     ],
     [
      77.9830806,
      30.4338925
     ],
     [
      77.9831583,
      30.4339144
     ],
     [
      77.9833105,
      30.4340082
     ],
     [
      77.9834585,
      30.4341138
     ],
     [
      77.9836206,
      30.4342
     ],
     [
      77.9837967,
      30.4342727
     ],
     [
      77.9838528,
      30.434286
     ],
     [
      77.9839128,
      30.4342894
     ],
     [
      77.9839621,
      30.4342836
     ],
     [
      77.9840111,
      30.434263
     ],
     [
      77.9840432,
      30.4342323
     ],
     [
      77.9840644,
      30.4341875
     ],
     [
      77.9840749,
      30.434148
     ],
     [
      77.9840735,
      30.4341157
     ],
     [
      77.9840017,
      30.4339901
     ],
     [
      77.9839804,
      30.4339271
     ],
     [
      77.9839723,
      30.433857
     ],
     [
      77.9839767,
      30.4338016
     ],
     [
      77.9839979,
      30.4337317
     ],
     [
      77.9840705,
      30.4335393
     ],
     [
      77.9840788,
      30.4334999
     ],
     [
      77.9840783,
      30.4334681
     ],
     [
      77.9840878,
      30.4333033
     ],
     [
      77.984148,
      30.4331349
     ],
     [
      77.9842237,
      30.432976
     ],
     [
      77.9842993,
      30.4328475
     ],
     [
      77.9843669,
      30.432745
     ],
     [
      77.9844345,
      30.4326628
     ],
     [
      77.9845576,
      30.4325417
     ],
     [
      77.9846748,
      30.432456
     ],
     [
      77.9850212,
      30.4322513
     ],
     [
      77.9854058,
      30.4320463
     ],
     [
      77.9855879,
      30.4319351
     ],
     [
      77.9856671,
      30.4318941
     ],
     [
      77.9857531,
      30.4318578
     ],
     [
      77.9858381,
      30.431826
     ],
     [
      77.9859019,
      30.4318078
     ],
     [
      77.9859482,
      30.431799
     ],
     [
      77.9859894,
      30.4317957
     ],
     [
      77.9860299,
      30.4317966
     ],
     [
      77.9860613,
      30.4318055
     ],
     [
      77.9860918,
      30.4318203
     ],
     [
      77.9861187,
      30.4318373
     ],
     [
      77.9862298,
      30.4319079
     ],
     [
      77.9863029,
      30.4319699
     ],
     [
      77.9863805,
      30.4320535
     ],
     [
      77.9865456,
      30.43226
     ],
     [
      77.986721,
      30.4324488
     ],
     [
      77.9870284,
      30.4328181
     ],
     [
      77.9870908,
      30.4329048
     ],
     [
      77.9871076,
      30.4329476
     ],
     [
      77.9871733,
      30.4331843
     ],
     [
      77.9871933,
      30.4332271
     ],
     [
      77.9872312,
      30.4332776
     ],
     [
      77.9873969,
      30.4334208
     ],
     [
      77.9875003,
      30.4334929
     ],
     [
      77.9877907,
      30.4337091
     ],
     [
      77.9879092,
      30.4338315
     ],
     [
      77.9879899,
      30.4339679
     ],
     [
      77.9881677,
      30.434425
     ],
     [
      77.9883583,
      30.4347067
     ],
     [
      77.9885614,
      30.4349545
     ],
     [
      77.9886436,
      30.435007
     ],
     [
      77.9887086,
      30.4350288
     ],
     [
      77.9888225,
      30.4350423
     ],
     [
      77.9889154,
      30.4350358
     ],
     [
      77.9889808,
      30.4350091
     ],
     [
      77.9890351,
      30.4349538
     ],
     [
      77.9890685,
      30.4348982
     ],
     [
      77.98908,
      30.4348247
     ],
     [
      77.9890729,
      30.4346136
     ],
     [
      77.9890874,
      30.4343132
     ],
     [
      77.9891036,
      30.4342212
     ],
     [
      77.9891425,
      30.4341495
     ],
     [
      77.9891881,
      30.434102
     ],
     [
      77.9892453,
      30.4340631
     ],
     [
      77.98958,
      30.4339183
     ],
     [
      77.9896136,
      30.4338884
     ],
     [
      77.9896328,
      30.4338503
     ],
     [
      77.9896332,
      30.4338043
     ],
     [
      77.989612,
      30.4337679
     ],
     [
      77.9895754,
      30.4337322
     ],
     [
      77.9892916,
      30.4336036
     ],
     [
      77.9892471,
      30.4335786
     ],
     [
      77.9892102,
      30.4335491
     ],
     [
      77.9891938,
      30.4335225
     ],
     [
      77.9891825,
      30.4334892
     ],
     [
      77.9892085,
      30.4332758
     ],
     [
      77.989202,
      30.4331946
     ],
     [
      77.98918,
      30.4331435
     ],
     [
      77.9891058,
      30.4330094
     ],
     [
      77.9890858,
      30.4329537
     ],
     [
      77.9890885,
      30.4328937
     ],
     [
      77.9891117,
      30.432839
     ],
     [
      77.9891786,
      30.4327397
     ],
     [
      77.9891887,
      30.4327073
     ],
     [
      77.9891866,
      30.4326815
     ],
     [
      77.9891672,
      30.4326513
     ],
     [
      77.9890989,
      30.4325693
     ],
     [
      77.9890861,
      30.4325334
     ],
     [
      77.98908,
      30.432488
     ],
     [
      77.9890808,
      30.4323749
     ],
     [
      77.9890882,
      30.432283
     ],
     [
      77.98918,
      30.432047
     ],
     [
      77.9891907,
      30.4320295
     ],
     [
      77.9892063,
      30.4320157
     ],
     [
      77.9892231,
      30.4320059
     ],
     [
      77.989252,
      30.4319988
     ],
     [
      77.9897542,
      30.4319566
     ],
     [
      77.9899115,
      30.4319245
     ],
     [
      77.9900621,
      30.4318789
     ],
     [
      77.9902367,
      30.4318149
     ],
     [
      77.9903079,
      30.4317774
     ],
     [
      77.9903376,
      30.4317558
     ],
     [
      77.9903625,
      30.4317322
     ],
     [
      77.9904066,
      30.4316557
     ],
     [
      77.9904311,
      30.4315983
     ],
     [
      77.9904496,
      30.4315379
     ],
     [
      77.9904533,
      30.4314748
     ],
     [
      77.9904518,
      30.4314153
     ],
     [
      77.9904527,
      30.4313945
     ],
     [
      77.9904559,
      30.4313744
     ],
     [
      77.990468,
      30.4313576
     ],
     [
      77.9904876,
      30.4313444
     ],
     [
      77.9905045,
      30.4313392
     ],
     [
      77.9905313,
      30.4313386
     ],
     [
      77.9905509,
      30.4313417
     ],
     [
      77.990583,
      30.4313509
     ],
     [
      77.9909126,
      30.4315396
     ],
     [
      77.9909572,
      30.4315512
     ],
     [
      77.9910053,
      30.4315541
     ],
     [
      77.9910552,
      30.4315508
     ],
     [
      77.9910982,
      30.4315323
     ],
     [
      77.9911936,
      30.4314575
     ],
     [
      77.9912781,
      30.4313778
     ],
     [
      77.9913057,
      30.4313379
     ],
     [
      77.9913611,
      30.4312146
     ],
     [
      77.9914227,
      30.4310967
     ],
     [
      77.9914387,
      30.4310746
     ],
     [
      77.9914566,
      30.4310541
     ],
     [
      77.9914752,
      30.4310394
     ],
     [
      77.9914937,
      30.4310277
     ],
     [
      77.9917243,
      30.4309192
     ],
     [
      77.9919278,
      30.4308157
     ],
     [
      77.991949,
      30.4307995
     ],
     [
      77.9919663,
      30.4307789
     ],
     [
      77.9919848,
      30.4307521
     ],
     [
      77.9919953,
      30.4307161
     ],
     [
      77.9920071,
      30.430665
     ],
     [
      77.9920202,
      30.4306148
     ],
     [
      77.9920512,
      30.4305435
     ],
     [
      77.9920799,
      30.4304925
     ],
     [
      77.9921144,
      30.4304432
     ],
     [
      77.9921537,
      30.4304007
     ],
     [
      77.9923726,
      30.4302486
     ],
     [
      77.9924295,
      30.4301898
     ],
     [
      77.992474,
      30.430131
     ],
     [
      77.9925162,
      30.4300472
     ],
     [
      77.9925279,
      30.4299726
     ],
     [
      77.9925315,
      30.4299024
     ],
     [
      77.9925275,
      30.429863
     ],
     [
      77.9925153,
      30.429836
     ],
     [
      77.9924927,
      30.429801
     ],
     [
      77.9924842,
      30.4297789
     ],
     [
      77.9924802,
      30.4297567
     ],
     [
      77.9924783,
      30.4297264
     ],
     [
      77.992482,
      30.4296793
     ],
     [
      77.9924883,
      30.4296391
     ],
     [
      77.9925037,
      30.4295924
     ],
     [
      77.9925252,
      30.4295557
     ],
     [
      77.992566,
      30.429506
     ],
     [
      77.9926014,
      30.4294792
     ],
     [
      77.9926291,
      30.4294643
     ],
     [
      77.9926577,
      30.4294571
     ],
     [
      77.9926788,
      30.4294545
     ],
     [
      77.9927074,
      30.4294597
     ],
     [
      77.9927308,
      30.4294694
     ],
     [
      77.9928033,
      30.4295084
     ],
     [
      77.9928977,
      30.4295622
     ],
     [
      77.9930826,
      30.4296699
     ],
     [
      77.9931224,
      30.4296983
     ],
     [
      77.9932635,
      30.429849
     ],
     [
      77.9933006,
      30.4298792
     ],
     [
      77.9934263,
      30.4299471
     ],
     [
      77.993522,
      30.4299907
     ],
     [
      77.9935919,
      30.4300144
     ],
     [
      77.9936585,
      30.4300247
     ],
     [
      77.9937148,
      30.4300261
     ],
     [
      77.9939445,
      30.4300362
     ],
     [
      77.9939576,
      30.4300377
     ],
     [
      77.9939697,
      30.430041
     ],
     [
      77.9939808,
      30.4300478
     ],
     [
      77.9939887,
      30.4300564
     ],
     [
      77.9941245,
      30.4302881
     ],
     [
      77.9941444,
      30.4303235
     ],
     [
      77.9941572,
      30.4303384
     ],
     [
      77.9941716,
      30.4303492
     ],
     [
      77.9941931,
      30.4303567
     ],
     [
      77.9942162,
      30.4303615
     ],
     [
      77.9942393,
      30.4303626
     ],
     [
      77.9942625,
      30.4303569
     ],
     [
      77.9942805,
      30.4303472
     ],
     [
      77.9942957,
      30.430335
     ],
     [
      77.994319,
      30.4303014
     ],
     [
      77.9943988,
      30.4301015
     ],
     [
      77.9944551,
      30.4300172
     ],
     [
      77.9945122,
      30.42995
     ],
     [
      77.9946022,
      30.4298454
     ],
     [
      77.9946437,
      30.4298103
     ],
     [
      77.9946853,
      30.4297831
     ],
     [
      77.9947053,
      30.4297735
     ],
     [
      77.9947253,
      30.4297665
     ],
     [
      77.9947453,
      30.4297608
     ],
     [
      77.9947653,
      30.4297578
     ],
     [
      77.9947848,
      30.4297563
     ],
     [
      77.9948043,
      30.4297591
     ],
     [
      77.9948218,
      30.4297651
     ],
     [
      77.9948372,
      30.4297737
     ],
     [
      77.9948559,
      30.4297864
     ],
     [
      77.9949711,
      30.4298871
     ],
     [
      77.9949979,
      30.4299023
     ],
     [
      77.9950193,
      30.4299078
     ],
     [
      77.9950442,
      30.4299073
     ],
     [
      77.995078,
      30.4299044
     ],
     [
      77.9951047,
      30.4298939
     ],
     [
      77.9951292,
      30.4298732
     ],
     [
      77.9951466,
      30.4298524
     ],
     [
      77.9951849,
      30.4297697
     ],
     [
      77.9952112,
      30.4296962
     ],
     [
      77.9952186,
      30.4296606
     ],
     [
      77.9952233,
      30.4296195
     ],
     [
      77.9952193,
      30.4295948
     ],
     [
      77.9952081,
      30.4295747
     ],
     [
      77.9951833,
      30.4295432
     ],
     [
      77.9951673,
      30.4295131
     ],
     [
      77.9951381,
      30.4294281
     ],
     [
      77.9951073,
      30.4293298
     ],
     [
      77.9950796,
      30.4292089
     ],
     [
      77.9950678,
      30.4291208
     ],
     [
      77.9950622,
      30.4290221
     ],
     [
      77.9950666,
      30.4289858
     ],
     [
      77.9950954,
      30.4289019
     ],
     [
      77.9951307,
      30.4288179
     ],
     [
      77.9951685,
      30.4287434
     ],
     [
      77.9951942,
      30.4287095
     ],
     [
      77.9952503,
      30.4286511
     ],
     [
      77.9952865,
      30.4286227
     ],
     [
      77.9953135,
      30.4286051
     ],
     [
      77.9953769,
      30.4285743
     ],
     [
      77.9953975,
      30.4285693
     ],
     [
      77.9954123,
      30.4285666
     ],
     [
      77.995432,
      30.4285653
     ],
     [
      77.9954489,
      30.4285655
     ],
     [
      77.9954678,
      30.4285669
     ],
     [
      77.9954855,
      30.4285703
     ],
     [
      77.9955717,
      30.4286099
     ],
     [
      77.9955917,
      30.4286153
     ],
     [
      77.9959246,
      30.4286902
     ],
     [
      77.9959515,
      30.428691
     ],
     [
      77.9959732,
      30.4286872
     ],
     [
      77.9959988,
      30.4286797
     ],
     [
      77.9960202,
      30.4286722
     ],
     [
      77.9962783,
      30.4285369
     ],
     [
      77.9962894,
      30.4285332
     ],
     [
      77.9963018,
      30.4285303
     ],
     [
      77.9965447,
      30.428498
     ],
     [
      77.9966089,
      30.4284834
     ],
     [
      77.996667,
      30.4284669
     ],
     [
      77.996725,
      30.4284487
     ],
     [
      77.9967667,
      30.4284288
     ],
     [
      77.9968354,
      30.4283826
     ],
     [
      77.9968966,
      30.4283328
     ],
     [
      77.9969536,
      30.4282832
     ],
     [
      77.9969945,
      30.4282543
     ],
     [
      77.9970359,
      30.4282321
     ],
     [
      77.9974245,
      30.4280237
     ],
     [
      77.9974612,
      30.428009
     ],
     [
      77.997498,
      30.4279979
     ],
     [
      77.9975449,
      30.4279866
     ],
     [
      77.9975918,
      30.4279823
     ],
     [
      77.9976401,
      30.427982
     ],
     [
      77.9979781,
      30.4279957
     ],
     [
      77.9981695,
      30.4280066
     ],
     [
      77.9983487,
      30.4280241
     ],
     [
      77.9986667,
      30.4280641
     ],
     [
      77.9986954,
      30.4280709
     ],
     [
      77.9987241,
      30.4280824
     ],
     [
      77.9987504,
      30.4280936
     ],
     [
      77.9987753,
      30.4281094
     ],
     [
      77.9987944,
      30.428127
     ],
     [
      77.9988563,
      30.4282214
     ],
     [
      77.9988775,
      30.4282527
     ],
     [
      77.9988973,
      30.4282713
     ],
     [
      77.9989168,
      30.428279
     ],
     [
      77.9989383,
      30.4282822
     ],
     [
      77.9989611,
      30.4282815
     ],
     [
      77.9989829,
      30.4282763
     ],
     [
      77.9990077,
      30.4282582
     ],
     [
      77.9990266,
      30.4282402
     ],
     [
      77.9990768,
      30.4281861
     ],
     [
      77.9992446,
      30.4280241
     ],
     [
      77.9993902,
      30.4279235
     ],
     [
      77.9995858,
      30.4278198
     ],
     [
      77.9996308,
      30.4278027
     ],
     [
      77.9996824,
      30.4277895
     ],
     [
      77.9997341,
      30.4277816
     ],
     [
      77.9997655,
      30.4277832
     ],
     [
      77.9997911,
      30.4277889
     ],
     [
      77.9998132,
      30.4277972
     ],
     [
      77.9998318,
      30.4278084
     ],
     [
      77.9998527,
      30.4278364
     ],
     [
      77.9998646,
      30.4278617
     ],
     [
      77.9999016,
      30.427974
     ],
     [
      77.9999515,
      30.428136
     ],
     [
      77.9999988,
      30.4282564
     ],
     [
      78.000012,
      30.4282826
     ],
     [
      78.0000297,
      30.4283033
     ],
     [
      78.0000457,
      30.4283133
     ],
     [
      78.0000663,
      30.4283216
     ],
     [
      78.0000952,
      30.4283248
     ],
     [
      78.0001235,
      30.4283198
     ],
     [
      78.0001685,
      30.4283085
     ],
     [
      78.0002142,
      30.4282949
     ],
     [
      78.0003209,
      30.4282815
     ],
     [
      78.0004601,
      30.428281
     ],
     [
      78.0005243,
      30.428274
     ],
     [
      78.000595,
      30.4282568
     ],
     [
      78.0006729,
      30.4282315
     ],
     [
      78.0009501,
      30.4281132
     ],
     [
      78.0012062,
      30.4280231
     ],
     [
      78.0012264,
      30.4280198
     ],
     [
      78.001245,
      30.4280194
     ],
     [
      78.0012629,
      30.4280236
     ],
     [
      78.0012819,
      30.428033
     ],
     [
      78.0013661,
      30.4280862
     ],
     [
      78.0013862,
      30.4280939
     ],
     [
      78.0014112,
      30.4280979
     ],
     [
      78.0014398,
      30.4280912
     ],
     [
      78.0014751,
      30.4280756
     ],
     [
      78.0017151,
      30.4278816
     ],
     [
      78.0017608,
      30.4278502
     ],
     [
      78.0018079,
      30.4278259
     ],
     [
      78.0018692,
      30.427809
     ],
     [
      78.001976,
      30.4277966
     ],
     [
      78.002089,
      30.4277975
     ],
     [
      78.0022433,
      30.4278114
     ],
     [
      78.0023954,
      30.4278195
     ],
     [
      78.0024261,
      30.4278161
     ],
     [
      78.0024507,
      30.4278068
     ],
     [
      78.002482,
      30.4277883
     ],
     [
      78.0025063,
      30.427765
     ],
     [
      78.0025206,
      30.4277365
     ],
     [
      78.0025213,
      30.4277044
     ],
     [
      78.0025142,
      30.4276478
     ],
     [
      78.0024908,
      30.4275582
     ]
    ]
   }
  },
  {
   "type": "Feature",
   "id": "way/321638232",
   "properties": {
    "amenity": "university",
    "name": "University Of Petroleum and Energy Studies - UPES",
    "wikidata": "Q3633126"
   },
   "geometry": {
    "type": "Polygon",
    "coordinates": [
     [
      [
       77.9660971,
       30.4156492
      ],
      [
       77.9664503,
       30.4156873
      ],
      [
       77.9671567,
       30.415408
      ],
      [
       77.9673628,
       30.4157126
      ],
      [
       77.9687903,
       30.4152811
      ],
      [
       77.9689375,
       30.4155223
      ],
      [
       77.9701149,
       30.4151415
      ],
      [
       77.9704828,
       30.4160046
      ],
      [
       77.970262,
       30.4163472
      ],
      [
       77.9698647,
       30.4166772
      ],
      [
       77.9696292,
       30.4185428
      ],
      [
       77.9676718,
       30.4192028
      ],
      [
       77.9658911,
       30.4159919
      ],
      [
       77.9659752,
       30.415852
      ],
      [
       77.9660971,
       30.4156492
      ]
     ]
    ]
   }
  },
  {
   "type": "Feature",
   "id": "way/415438425",
   "properties": {
    "addr:street": "BIDHOLI",
    "building": "residential",
    "name": "SAI HOSTEL"
   },
   "geometry": {
    "type": "Polygon",
    "coordinates": [
     [
      [
       77.9698576,
       30.4138094
      ],
      [
       77.9700292,
       30.4139482
      ],
      [
       77.9700078,
       30.4137354
      ],
      [
       77.9698576,
       30.4138094
      ]
     ]
    ]
   }
  },
  {
   "type": "Feature",
   "id": "way/415439799",
   "properties": {
    "addr:street": "BIDHOLI",
    "building": "residential"
   },
   "geometry": {
    "type": "Polygon",
    "coordinates": [
     [
      [
       77.9690468,
       30.4114866
      ],
      [
       77.9689789,
       30.4111006
      ],
      [
       77.9692376,
       30.4110668
      ],
      [
       77.9693054,
       30.4114528
      ],
      [
       77.9690468,
       30.4114866
      ]
     ]
    ]
   }
  },
  {
   "type": "Feature",
   "id": "way/430471532",
   "properties": {
    "highway": "service"
   },
   "geometry": {
    "type": "LineString",
    "coordinates": [
     [
      77.9659402,
      30.4157123
     ],
     [
      77.9662142,
      30.4157805
     ],
     [
      77.9662286,
      30.4157824
     ],
     [
      77.9663178,
      30.4158056
     ],
     [
      77.966392,
      30.4158119
     ],
     [
      77.966439,
      30.415804
     ],
     [
      77.9665259,
      30.4157807
     ],
     [
      77.9666474,
      30.4157464
     ],
     [
      77.9670762,
      30.415601
     ],
     [
      77.9670982,
      30.4155983
     ],
     [
      77.9671239,
      30.4155984
     ],
     [
      77.9671464,
      30.4156045
     ],
     [
      77.9671658,
      30.4156167
     ],
     [
      77.9674227,
      30.4159584
     ],
     [
      77.9674421,
      30.415969
     ],
     [
      77.9674611,
      30.4159728
     ],
     [
      77.9674841,
      30.415972
     ],
     [
      77.9677298,
      30.4158909
     ],
     [
      77.9680132,
      30.4158202
     ],
     [
      77.968024,
      30.4158194
     ],
     [
      77.9680343,
      30.415822
     ],
     [
      77.9680475,
      30.4158287
     ],
     [
      77.9680629,
      30.4158448
     ],
     [
      77.9681561,
      30.4159812
     ],
     [
      77.9682399,
      30.4161538
     ],
     [
      77.968335,
      30.4163794
     ],
     [
      77.9683539,
      30.4164154
     ],
     [
      77.9683796,
      30.4164421
     ],
     [
      77.9684274,
      30.4164803
     ]
    ]
   }
  },
  {
   "type": "Feature",
   "id": "way/536452676",
   "properties": {
    "addr:street": "Bidholi",
    "building": "college",
    "name": "Energy block, UPES"
   },
   "geometry": {
    "type": "Polygon",
    "coordinates": [
     [
      [
       77.9667953,
       30.4160799
      ],
      [
       77.966835,
       30.4160718
      ],
      [
       77.9668513,
       30.4161181
      ],
      [
       77.9669027,
       30.416104
      ],
      [
       77.966919,
       30.4161362
      ],
      [
       77.9670988,
       30.416096
      ],
      [
       77.9670918,
       30.4160517
      ],
      [
       77.9671642,
       30.4160396
      ],
      [
       77.9671525,
       30.4159852
      ],
      [
       77.9672273,
       30.4159631
      ],
      [
       77.9671596,
       30.415802
      ],
      [
       77.9670802,
       30.4158181
      ],
      [
       77.9670591,
       30.4157617
      ],
      [
       77.9670054,
       30.4157758
      ],
      [
       77.9669961,
       30.4157335
      ],
      [
       77.9668023,
       30.4157818
      ],
      [
       77.9668116,
       30.4158261
      ],
      [
       77.9667439,
       30.4158463
      ],
      [
       77.9667649,
       30.4159047
      ],
      [
       77.9667206,
       30.4159107
      ],
      [
       77.9667953,
       30.4160799
      ]
     ]
    ]
   }
  },
  {
   "type": "Feature",
   "id": "way/1046558232",
   "properties": {
    "building": "yes",
    "name": "Scholars Paradise"
   },
   "geometry": {
    "type": "Polygon",
    "coordinates": [
     [
      [
       77.9728355,
       30.4138778
      ],
      [
       77.9726088,
       30.4135403
      ],
      [
       77.9729412,
       30.4134036
      ],
      [
       77.9730934,
       30.4136823
      ],
      [
       77.9728355,
       30.4138778
      ]
     ]
    ]
   }
  },
  {
   "type": "Feature",
   "id": "way/1092547101",
   "properties": {
    "highway": "residential"
   },
   "geometry": {
    "type": "LineString",
    "coordinates": [
     [
      77.9731549,
      30.4136433
     ],
     [
      77.9732389,
      30.4135382
     ],
     [
      77.9732573,
      30.4135188
     ],
     [
      77.9732857,
      30.4134952
     ],
     [
      77.973359,
      30.4134493
     ],
     [
      77.9734696,
      30.4134043
     ],
     [
      77.973719,
      30.4133105
     ],
     [
      77.9737701,
      30.4132816
     ],
     [
      77.9737969,
      30.4132581
     ],
     [
      77.9738255,
      30.4132246
     ],
     [
      77.9738451,
      30.4131892
     ],
     [
      77.973854,
      30.4131602
     ],
     [
      77.9738572,
      30.413136
     ],
     [
      77.9738158,
      30.4127732
     ],
     [
      77.9738172,
      30.4127437
     ],
     [
      77.9738313,
      30.4127191
     ],
     [
      77.9738587,
      30.4126949
     ],
     [
      77.9738961,
      30.4126805
     ],
     [
      77.9739414,
      30.4126675
     ],
     [
      77.9743252,
      30.4125908
     ],
     [
      77.9743935,
      30.4125698
     ],
     [
      77.9744374,
      30.4125389
     ],
     [
      77.9744682,
      30.4124948
     ],
     [
      77.9744861,
      30.4124534
     ],
     [
      77.974555,
      30.4122316
     ],
     [
      77.974559,
      30.4121766
     ],
     [
      77.9745458,
      30.412092
     ],
     [
      77.974523,
      30.412017
     ],
     [
      77.9744121,
      30.4117875
     ],
     [
      77.9742364,
      30.4114099
     ],
     [
      77.974061,
      30.4109974
     ],
     [
      77.9739846,
      30.4108143
     ],
     [
      77.9739573,
      30.4106787
     ],
     [
      77.9740088,
      30.4102089
     ]
    ]
   }
  },
  {
   "type": "Feature",
   "id": "way/1093066281",
   "properties": {
    "highway": "unclassified"
   },
   "geometry": {
    "type": "LineString",
    "coordinates": [
     [
      77.9684928,
      30.4105977
     ],
     [
      77.9687385,
      30.4106016
     ],
     [
      77.9687581,
      30.4106044
     ],
     [
      77.968774,
      30.4106111
     ],
     [
      77.968788,
      30.4106208
     ],
     [
      77.9687991,
      30.4106343
     ],
     [
      77.96888,
      30.4107776
     ],
     [
      77.9689157,
      30.4108841
     ],
     [
      77.9689384,
      30.4109776
     ],
     [
      77.9689495,
      30.4110932
     ],
     [
      77.9689596,
      30.4112237
     ],
     [
      77.968983,
      30.4114333
     ],
     [
      77.969018,
      30.4116072
     ],
     [
      77.9690537,
      30.4117884
     ],
     [
      77.9690866,
      30.4119625
     ],
     [
      77.9690992,
      30.4119942
     ],
     [
      77.9691059,
      30.4120112
     ],
     [
      77.9691287,
      30.4120502
     ],
     [
      77.9691551,
      30.4120816
     ],
     [
      77.9692328,
      30.4121737
     ],
     [
      77.9692708,
      30.4122219
     ],
     [
      77.9692883,
      30.412247
     ],
     [
      77.9693018,
      30.4122732
     ],
     [
      77.9693382,
      30.4123611
     ],
     [
      77.9693731,
      30.4124614
     ],
     [
      77.9694215,
      30.4126007
     ],
     [
      77.9694358,
      30.4126253
     ],
     [
      77.9694501,
      30.4126445
     ],
     [
      77.9694666,
      30.4126597
     ],
     [
      77.9695003,
      30.4126734
     ],
     [
      77.9695434,
      30.4126769
     ],
     [
      77.9698491,
      30.4126388
     ],
     [
      77.970166,
      30.412605
     ],
     [
      77.9705815,
      30.4126111
     ],
     [
      77.9706183,
      30.4126084
     ],
     [
      77.9708244,
      30.4125587
     ],
     [
      77.9710542,
      30.4124965
     ],
     [
      77.9716354,
      30.4123747
     ],
     [
      77.9716881,
      30.4123637
     ],
     [
      77.9722882,
      30.4122427
     ],
     [
      77.972354,
      30.4122262
     ],
     [
      77.9724491,
      30.4122078
     ],
     [
      77.9724733,
      30.412207
     ],
     [
      77.9724992,
      30.4122085
     ],
     [
      77.972525,
      30.4122167
     ],
     [
      77.9725468,
      30.41223
     ],
     [
      77.9725672,
      30.4122546
     ],
     [
      77.9727777,
      30.4127098
     ],
     [
      77.9728092,
      30.412822
     ],
     [
      77.9728377,
      30.4129524
     ],
     [
      77.9728723,
      30.4130693
     ],
     [
      77.9728946,
      30.4131429
     ],
     [
      77.9729102,
      30.4131787
     ],
     [
      77.9730316,
      30.4134369
     ],
     [
      77.9731549,
      30.4136433
     ],
     [
      77.9730596,
      30.4137643
     ],
     [
      77.9729515,
      30.4138597
     ],
     [
      77.9728676,
      30.4139311
     ],
     [
      77.9728115,
      30.4139938
     ],
     [
      77.9727663,
      30.4140611
     ],
     [
      77.9727342,
      30.4141211
     ],
     [
      77.9727101,
      30.414188
     ],
     [
      77.9726979,
      30.4142925
     ],
     [
      77.9727086,
      30.4144109
     ],
     [
      77.9727051,
      30.4144842
     ],
     [
      77.9726879,
      30.4145654
     ],
     [
      77.9726232,
      30.4146992
     ],
     [
      77.9725089,
      30.4148304
     ],
     [
      77.9719819,
      30.4152068
     ],
     [
      77.9711658,
      30.4157497
     ],
     [
      77.9707713,
      30.4160306
     ],
     [
      77.9707397,
      30.4160672
     ],
     [
      77.9707011,
      30.4161204
     ],
     [
      77.9706119,
      30.4162272
     ],
     [
      77.9705197,
      30.4163182
     ],
     [
      77.9704529,
      30.4163676
     ],
     [
      77.9703618,
      30.416417
     ],
     [
      77.9703315,
      30.4164372
     ],
     [
      77.9702006,
      30.4165287
     ],
     [
      77.9701458,
      30.4165748
     ],
     [
      77.9700909,
      30.4166307
     ],
     [
      77.9700579,
      30.4166669
     ],
     [
      77.9700226,
      30.4167368
     ],
     [
      77.9699456,
      30.4170123
     ],
     [
      77.9698712,
      30.4172149
     ],
     [
      77.9698193,
      30.4173133
     ],
     [
      77.9697925,
      30.4173734
     ],
     [
      77.9697752,
      30.4174198
     ],
     [
      77.9697631,
      30.4174552
     ],
     [
      77.9697564,
      30.4174955
     ],
     [
      77.9697434,
      30.4175806
     ],
     [
      77.9697198,
      30.4177283
     ],
     [
      77.9697124,
      30.4179385
     ],
     [
      77.9697076,
      30.4180763
     ],
     [
      77.9697485,
      30.418586
     ]
    ]
   }
  },
  {
   "type": "Feature",
   "id": "way/1093089716",
   "properties": {
    "highway": "service"
   },
   "geometry": {
    "type": "LineString",
    "coordinates": [
     [
      77.9693731,
      30.4124614
     ],
     [
      77.9693008,
      30.4124919
     ],
     [
      77.9689752,
      30.4126291
     ],
     [
      77.9685867,
      30.4127807
     ]
    ]
   }
  },
  {
   "type": "Feature",
   "id": "way/1093089717",
   "properties": {
    "highway": "service"
   },
   "geometry": {
    "type": "LineString",
    "coordinates": [
     [
      77.9670153,
      30.413308
     ],
     [
      77.9671506,
      30.4132761
     ],
     [
      77.9671677,
      30.41327
     ],
     [
      77.9672417,
      30.4132307
     ],
     [
      77.9673315,
      30.4131819
     ],
     [
      77.9674161,
      30.4131525
     ],
     [
      77.9675364,
      30.4131067
     ],
     [
      77.9675502,
      30.4131002
     ],
     [
      77.9676656,
      30.4130167
     ],
     [
      77.967742,
      30.4129828
     ],
     [
      77.9678039,
      30.4129547
     ],
     [
      77.9680284,
      30.4128076
     ],
     [
      77.9680342,
      30.4128049
     ],
     [
      77.96804,
      30.4128035
     ],
     [
      77.9681525,
      30.4127893
     ],
     [
      77.9681704,
      30.4127814
     ],
     [
      77.9682029,
      30.4127584
     ],
     [
      77.9682213,
      30.4127374
     ],
     [
      77.9683027,
      30.4126092
     ],
     [
      77.9683734,
      30.4125085
     ],
     [
      77.9684055,
      30.412465
     ],
     [
      77.9684211,
      30.4124526
     ],
     [
      77.9684434,
      30.4124449
     ],
     [
      77.9686496,
      30.4124138
     ],
     [
      77.9688424,
      30.4124032
     ],
     [
      77.9688701,
      30.4124071
     ],
     [
      77.9690355,
      30.4124633
     ],
     [
      77.969085,
      30.4124691
     ],
     [
      77.9692009,
      30.4124788
     ],
     [
      77.9693008,
      30.4124919
     ]
    ]
   }
  },
  {
   "type": "Feature",
   "id": "way/1093091884",
   "properties": {
    "highway": "residential"
   },
   "geometry": {
    "type": "LineString",
    "coordinates": [
     [
      77.9690992,
      30.4119942
     ],
     [
      77.9696342,
      30.4118557
     ],
     [
      77.9696473,
      30.4118535
     ],
     [
      77.9696611,
      30.4118555
     ],
     [
      77.9696735,
      30.4118621
     ],
     [
      77.9696796,
      30.4118734
     ],
     [
      77.969718,
      30.4120514
     ]
    ]
   }
  },
  {
   "type": "Feature",
   "id": "way/1093091885",
   "properties": {
    "highway": "service"
   },
   "geometry": {
    "type": "LineString",
    "coordinates": [
     [
      77.9695003,
      30.4126734
     ],
     [
      77.9694717,
      30.4126988
     ],
     [
      77.9694459,
      30.4127178
     ],
     [
      77.9694096,
      30.4127343
     ],
     [
      77.9692374,
      30.4127963
     ],
     [
      77.9688771,
      30.412926
     ]
    ]
   }
  },
  {
   "type": "Feature",
   "id": "way/1093091886",
   "properties": {
    "highway": "service"
   },
   "geometry": {
    "type": "LineString",
    "coordinates": [
     [
      77.9692374,
      30.4127963
     ],
     [
      77.9694419,
      30.4131922
     ]
    ]
   }
  },
  {
   "type": "Feature",
   "id": "way/1093091887",
   "properties": {
    "highway": "residential"
   },
   "geometry": {
    "type": "LineString",
    "coordinates": [
     [
      77.9697692,
      30.4137272
     ],
     [
      77.9698135,
      30.4138302
     ],
     [
      77.9699097,
      30.4139785
     ],
     [
      77.9699349,
      30.414
     ],
     [
      77.9699592,
      30.4140081
     ],
     [
      77.969992,
      30.4140127
     ],
     [
      77.9700361,
      30.4140084
     ],
     [
      77.9706294,
      30.4138972
     ],
     [
      77.9712207,
      30.4137702
     ],
     [
      77.9715157,
      30.41368
     ],
     [
      77.9717705,
      30.4136106
     ],
     [
      77.9718556,
      30.4135823
     ],
     [
      77.9719488,
      30.4135412
     ],
     [
      77.9720553,
      30.413477
     ],
     [
      77.9720713,
      30.4134642
     ],
     [
      77.9720783,
      30.4134473
     ],
     [
      77.9720789,
      30.4134337
     ],
     [
      77.9720755,
      30.4134178
     ],
     [
      77.9720139,
      30.4133065
     ],
     [
      77.9720132,
      30.4132999
     ],
     [
      77.9720148,
      30.4132931
     ],
     [
      77.972017,
      30.4132893
     ],
     [
      77.9720205,
      30.4132864
     ],
     [
      77.9720246,
      30.413284
     ],
     [
      77.9721579,
      30.4132318
     ],
     [
      77.972186,
      30.413227
     ],
     [
      77.9723591,
      30.4132192
     ],
     [
      77.9723985,
      30.4132148
     ],
     [
      77.9728946,
      30.4131429
     ]
    ]
   }
  },
  {
   "type": "Feature",
   "id": "way/1093096744",
   "properties": {
    "highway": "residential"
   },
   "geometry": {
    "type": "LineString",
    "coordinates": [
     [
      77.9712413,
      30.4097298
     ],
     [
      77.9713758,
      30.4100263
     ],
     [
      77.9714207,
      30.4101254
     ],
     [
      77.9714931,
      30.4102936
     ],
     [
      77.9715235,
      30.4103711
     ],
     [
      77.97159,
      30.4105956
     ],
     [
      77.9716439,
      30.4107724
     ],
     [
      77.9718203,
      30.4111569
     ],
     [
      77.9719112,
      30.4113613
     ],
     [
      77.9719818,
      30.4115727
     ],
     [
      77.9719868,
      30.4115778
     ],
     [
      77.9719935,
      30.411582
     ],
     [
      77.9721384,
      30.4116323
     ],
     [
      77.9721477,
      30.4116378
     ],
     [
      77.9721548,
      30.4116468
     ],
     [
      77.972229,
      30.4118006
     ],
     [
      77.972275,
      30.411936
     ],
     [
      77.972354,
      30.4122262
     ]
    ]
   }
  },
  {
   "type": "Feature",
   "id": "way/1093096746",
   "properties": {
    "highway": "residential"
   },
   "geometry": {
    "type": "LineString",
    "coordinates": [
     [
      77.9716354,
      30.4123747
     ],
     [
      77.9717051,
      30.4126387
     ],
     [
      77.9716211,
      30.4127312
     ],
     [
      77.9715909,
      30.4127997
     ],
     [
      77.9716954,
      30.4130165
     ],
     [
      77.9717103,
      30.4130299
     ],
     [
      77.971755,
      30.4130559
     ],
     [
      77.9717718,
      30.4130679
     ],
     [
      77.9717866,
      30.4130839
     ],
     [
      77.9717948,
      30.4131033
     ],
     [
      77.9717968,
      30.413125
     ],
     [
      77.9717947,
      30.41315
     ],
     [
      77.9717965,
      30.4131622
     ],
     [
      77.9718566,
      30.4132909
     ],
     [
      77.9718599,
      30.4132943
     ],
     [
      77.971866,
      30.4132977
     ],
     [
      77.9718724,
      30.4132989
     ],
     [
      77.9720132,
      30.4132999
     ]
    ]
   }
  },
  {
   "type": "Feature",
   "id": "way/1093096747",
   "properties": {
    "highway": "service"
   },
   "geometry": {
    "type": "LineString",
    "coordinates": [
     [
      77.9685636,
      30.4165693
     ],
     [
      77.9685871,
      30.4166164
     ],
     [
      77.9686023,
      30.4166344
     ],
     [
      77.9686249,
      30.4166523
     ],
     [
      77.9686385,
      30.4166562
     ],
     [
      77.968653,
      30.416656
     ],
     [
      77.9690641,
      30.4165604
     ],
     [
      77.9697318,
      30.4163777
     ],
     [
      77.9697456,
      30.4163762
     ],
     [
      77.9697578,
      30.4163774
     ],
     [
      77.9697745,
      30.4163843
     ],
     [
      77.9697847,
      30.4163954
     ],
     [
      77.9698175,
      30.4164547
     ],
     [
      77.9698347,
      30.4164937
     ],
     [
      77.9698473,
      30.4165326
     ],
     [
      77.9698518,
      30.4165742
     ],
     [
      77.9698509,
      30.4166096
     ],
     [
      77.9697856,
      30.4168057
     ],
     [
      77.9696959,
      30.4170159
     ]
    ]
   }
  },
  {
   "type": "Feature",
   "id": "way/1093096748",
   "properties": {
    "highway": "service"
   },
   "geometry": {
    "type": "LineString",
    "coordinates": [
     [
      77.9685911,
      30.4165528
     ],
     [
      77.9685636,
      30.4165693
     ],
     [
      77.9685313,
      30.4165768
     ],
     [
      77.9685044,
      30.4165755
     ],
     [
      77.968479,
      30.416568
     ],
     [
      77.968457,
      30.4165547
     ],
     [
      77.9684434,
      30.4165412
     ],
     [
      77.9684334,
      30.4165254
     ],
     [
      77.9684276,
      30.4165082
     ],
     [
      77.9684262,
      30.4164903
     ],
     [
      77.9684274,
      30.4164803
     ],
     [
      77.9684348,
      30.4164591
     ],
     [
      77.9684484,
      30.4164404
     ],
     [
      77.9684673,
      30.4164254
     ],
     [
      77.96849,
      30.4164152
     ],
     [
      77.9685151,
      30.4164105
     ]
    ]
   }
  },
  {
   "type": "Feature",
   "id": "way/1093096749",
   "properties": {
    "highway": "service"
   },
   "geometry": {
    "type": "LineString",
    "coordinates": [
     [
      77.9684262,
      30.4164903
     ],
     [
      77.9669329,
      30.4168902
     ],
     [
      77.9669126,
      30.4169018
     ],
     [
      77.9669002,
      30.4169174
     ],
     [
      77.9668941,
      30.4169404
     ]
    ]
   }
  },
  {
   "type": "Feature",
   "id": "way/1093096750",
   "properties": {
    "highway": "service"
   },
   "geometry": {
    "type": "LineString",
    "coordinates": [
     [
      77.9668941,
      30.4169404
     ],
     [
      77.9669111,
      30.4169542
     ],
     [
      77.9669391,
      30.4169642
     ],
     [
      77.9669549,
      30.4169686
     ],
     [
      77.9669739,
      30.4169704
     ],
     [
      77.9669892,
      30.4169711
     ],
     [
      77.9670085,
      30.4169704
     ],
     [
      77.9672375,
      30.4169163
     ],
     [
      77.9675796,
      30.4168227
     ],
     [
      77.9683299,
      30.4166208
     ],
     [
      77.9683474,
      30.4166143
     ],
     [
      77.9684013,
      30.4165854
     ],
     [
      77.968457,
      30.4165547
     ]
    ]
   }
  },
  {
   "type": "Feature",
   "id": "way/1093096751",
   "properties": {
    "highway": "service"
   },
   "geometry": {
    "type": "LineString",
    "coordinates": [
     [
      77.9668941,
      30.4169404
     ],
     [
      77.9668021,
      30.4169018
     ],
     [
      77.9667096,
      30.4168545
     ],
     [
      77.9666668,
      30.4168298
     ],
     [
      77.966626,
      30.4167966
     ],
     [
      77.9666021,
      30.4167589
     ],
     [
      77.9665713,
      30.4167043
     ],
     [
      77.9665509,
      30.4166511
     ],
     [
      77.9665386,
      30.4165895
     ],
     [
      77.9665344,
      30.4164976
     ],
     [
      77.9665467,
      30.4163887
     ],
     [
      77.9665734,
      30.4161439
     ]
    ]
   }
  },
  {
   "type": "Feature",
   "id": "way/1093098717",
   "properties": {
    "highway": "service"
   },
   "geometry": {
    "type": "LineString",
    "coordinates": [
     [
      77.966392,
      30.4158119
     ],
     [
      77.9663993,
      30.4158739
     ],
     [
      77.9664042,
      30.4158967
     ],
     [
      77.9664099,
      30.4159111
     ],
     [
      77.9665036,
      30.4160885
     ],
     [
      77.9665344,
      30.416126
     ],
     [
      77.9665517,
      30.416138
     ],
     [
      77.9665734,
      30.4161439
     ]
    ]
   }
  },
  {
   "type": "Feature",
   "id": "way/1093098718",
   "properties": {
    "highway": "service"
   },
   "geometry": {
    "type": "LineString",
    "coordinates": [
     [
      77.9665734,
      30.4161439
     ],
     [
      77.9665802,
      30.4161242
     ],
     [
      77.9665801,
      30.4161109
     ],
     [
      77.9665733,
      30.4160883
     ],
     [
      77.9664648,
      30.4158849
     ],
     [
      77.9664543,
      30.4158723
     ],
     [
      77.966442,
      30.4158597
     ],
     [
      77.966392,
      30.4158119
     ]
    ]
   }
  },
  {
   "type": "Feature",
   "id": "way/1093098719",
   "properties": {
    "highway": "service"
   },
   "geometry": {
    "type": "LineString",
    "coordinates": [
     [
      77.9690661,
      30.4181884
     ],
     [
      77.9690034,
      30.4179918
     ],
     [
      77.9689132,
      30.4177411
     ],
     [
      77.9686993,
      30.4171153
     ],
     [
      77.9685706,
      30.416713
     ],
     [
      77.9685506,
      30.4166414
     ],
     [
      77.9685313,
      30.4165768
     ]
    ]
   }
  },
  {
   "type": "Feature",
   "id": "way/1093098720",
   "properties": {
    "highway": "service"
   },
   "geometry": {
    "type": "LineString",
    "coordinates": [
     [
      77.9686993,
      30.4171153
     ],
     [
      77.9681388,
      30.4173119
     ],
     [
      77.9675916,
      30.4175153
     ],
     [
      77.9672644,
      30.4176471
     ],
     [
      77.9671705,
      30.4176842
     ]
    ]
   }
  },
  {
   "type": "Feature",
   "id": "way/1093098721",
   "properties": {
    "highway": "service"
   },
   "geometry": {
    "type": "LineString",
    "coordinates": [
     [
      77.9689132,
      30.4177411
     ],
     [
      77.9686097,
      30.4178229
     ],
     [
      77.9682939,
      30.4179247
     ],
     [
      77.9679889,
      30.4180269
     ],
     [
      77.9676962,
      30.4181489
     ]
    ]
   }
  },
  {
   "type": "Feature",
   "id": "way/1093098722",
   "properties": {
    "highway": "service"
   },
   "geometry": {
    "type": "LineString",
    "coordinates": [
     [
      77.9666474,
      30.4157464
     ],
     [
      77.9667602,
      30.416087
     ],
     [
      77.9667598,
      30.4161012
     ],
     [
      77.9667528,
      30.4161132
     ],
     [
      77.9667389,
      30.4161205
     ],
     [
      77.9665734,
      30.4161439
     ]
    ]
   }
  },
  {
   "type": "Feature",
   "id": "way/1093098723",
   "properties": {
    "highway": "service"
   },
   "geometry": {
    "type": "LineString",
    "coordinates": [
     [
      77.9690034,
      30.4179918
     ],
     [
      77.9692027,
      30.4179666
     ],
     [
      77.9694136,
      30.4179496
     ],
     [
      77.9697124,
      30.4179385
     ]
    ]
   }
  },
  {
   "type": "Feature",
   "id": "way/1093099286",
   "properties": {
    "highway": "service"
   },
   "geometry": {
    "type": "LineString",
    "coordinates": [
     [
      77.9685486,
      30.4164132
     ],
     [
      77.9701944,
      30.4159721
     ]
    ]
   }
  },
  {
   "type": "Feature",
   "id": "way/1093188723",
   "properties": {
    "highway": "service"
   },
   "geometry": {
    "type": "LineString",
    "coordinates": [
     [
      77.9685151,
      30.4164105
     ],
     [
      77.9685486,
      30.4164132
     ],
     [
      77.9685789,
      30.4164256
     ],
     [
      77.9686025,
      30.4164462
     ],
     [
      77.9686165,
      30.4164725
     ],
     [
      77.9686192,
      30.4165013
     ],
     [
      77.9686104,
      30.4165292
     ],
     [
      77.9685911,
      30.4165528
     ]
    ]
   }
  },
  {
   "type": "Feature",
   "id": "way/1093733599",
   "properties": {
    "highway": "residential"
   },
   "geometry": {
    "type": "LineString",
    "coordinates": [
     [
      77.9683357,
      30.4122217
     ],
     [
      77.9690992,
      30.4119942
     ]
    ]
   }
  },
  {
   "type": "Feature",
   "id": "way/1427743659",
   "properties": {
    "addr:street": "Kandoli",
    "amenity": "cafe",
    "building": "hut",
    "name": "Cafe De Bistro"
   },
   "geometry": {
    "type": "Polygon",
    "coordinates": [
     [
      [
       77.9672754,
       30.4181905
      ],
      [
       77.9674739,
       30.4181327
      ],
      [
       77.967329,
       30.4178274
      ],
      [
       77.9671386,
       30.4179014
      ],
      [
       77.9672754,
       30.4181905
      ]
     ]
    ]
   }
  },
  {
   "type": "Feature",
   "id": "way/1469358058",
   "properties": {
    "highway": "residential"
   },
   "geometry": {
    "type": "LineString",
    "coordinates": [
     [
      77.9666617,
      30.4139397
     ],
     [
      77.9673583,
      30.4136665
     ],
     [
      77.9681594,
      30.4133523
     ]
    ]
   }
  },
  {
   "type": "Feature",
   "id": "way/1469358059",
   "properties": {
    "highway": "residential"
   },
   "geometry": {
    "type": "LineString",
    "coordinates": [
     [
      77.9673583,
      30.4136665
     ],
     [
      77.9675222,
      30.4140062
     ],
     [
      77.9675612,
      30.4140384
     ],
     [
      77.9675915,
      30.4140361
     ],
     [
      77.9680278,
      30.4138689
     ],
     [
      77.968099,
      30.4138523
     ],
     [
      77.9684191,
      30.4145139
     ]
    ]
   }
  },
  {
   "type": "Feature",
   "id": "way/1469358060",
   "properties": {
    "highway": "residential"
   },
   "geometry": {
    "type": "LineString",
    "coordinates": [
     [
      77.968099,
      30.4138523
     ],
     [
      77.9683721,
      30.4137595
     ]
    ]
   }
  },
  {
   "type": "Feature",
   "id": "node/4165131646",
   "properties": {
    "amenity": "restaurant",
    "name": "D1"
   },
   "geometry": {
    "type": "Point",
    "coordinates": [
     77.9662527,
     30.4157802
    ]
   }
  },
  {
   "type": "Feature",
   "id": "node/4165140656",
   "properties": {
    "amenity": "restaurant",
    "name": "D2"
   },
   "geometry": {
    "type": "Point",
    "coordinates": [
     77.9669179,
     30.413902
    ]
   }
  },
  {
   "type": "Feature",
   "id": "node/4165140657",
   "properties": {
    "amenity": "restaurant",
    "name": "D3"
   },
   "geometry": {
    "type": "Point",
    "coordinates": [
     77.9671539,
     30.4127547
    ]
   }
  },
  {
   "type": "Feature",
   "id": "node/4165162865",
   "properties": {
    "amenity": "restaurant",
    "name": "RAVI FOOD CORNER"
   },
   "geometry": {
    "type": "Point",
    "coordinates": [
     77.970394,
     30.4126621
    ]
   }
  },
  {
   "type": "Feature",
   "id": "node/4165237313",
   "properties": {
    "amenity": "hospital",
    "name": "INFIRMARY"
   },
   "geometry": {
    "type": "Point",
    "coordinates": [
     77.9676696,
     30.4169652
    ]
   }
  }
 ]
}